GLOBALSTAR M057 [-]     
1 25943U 99058A   23337.40603755 -.00000067  00000+0  23422-3 0  9991
2 25943  51.9955 142.4586 0001321 306.4999  53.5728 12.24780205 98093
GLOBALSTAR M059 [-]     
1 25944U 99058B   23337.35612273 -.00000010  00000+0  94399-3 0  9990
2 25944  52.0030 287.0742 0000757  12.2960 156.0697 11.99957002506597
GLOBALSTAR M056 [-]     
1 25945U 99058C   23338.08897767 -.00000043  00000+0  52195-3 0  9999
2 25945  51.9979 301.4664 0000885 116.8678 336.5814 12.04774464 95046
GLOBALSTAR M031 [-]     
1 25946U 99058D   23338.10349534 -.00000016  00000+0  75676-3 0  9996
2 25946  51.9953 227.3196 0002324  97.6439  50.8317 12.15999810 96520
GLOBALSTAR M039 [-]     
1 25961U 99062A   23337.84554137 -.00000088  00000+0  89629-4 0  9998
2 25961  51.9821 178.3779 0002876 159.5729 200.5253 12.62276098109352
GLOBALSTAR M034 [-]     
1 25962U 99062B   23337.49905911 -.00000051  00000+0  46967-3 0  9997
2 25962  51.9907  31.4160 0014209  63.1277  43.7205 11.79418449 72114
GLOBALSTAR M029 [-]     
1 25963U 99062C   23337.89607432 -.00000076  00000+0  12093-3 0  9999
2 25963  51.9771 174.1294 0003867  93.3236  16.5969 11.99871394101791
GLOBALSTAR M061 [-]     
1 25964U 99062D   23337.56383233 -.00000053  00000+0  45362-3 0  9994
2 25964  51.9772 207.8429 0006263   0.5328   1.9443 11.76755176 55069
